[{"OBJECT_NAME":"CS1","OBJECT_ID":"2021-088B","EPOCH":"2026-03-09T18:02:30.253920","MEAN_MOTION":15.31848439,"ECCENTRICITY":0.00141292,"INCLINATION":97.3882,"RA_OF_ASC_NODE":132.1684,"ARG_OF_PERICENTER":78.0335,"MEAN_ANOMALY":282.249,"EPHEMERIS_TYPE":0,"CLASSIFICATION_TYPE":"U","NORAD_CAT_ID":49261,"ELEMENT_SET_NO":999,"REV_AT_EPOCH":24518,"BSTAR":0.00051175576,"MEAN_MOTION_DOT":0.00015722,"MEAN_MOTION_DDOT":0},{"OBJECT_NAME":"STARLINK-33692","OBJECT_ID":"2025-065K","EPOCH":"2026-03-09T19:22:36.682464","MEAN_MOTION":15.27588379,"ECCENTRICITY":0.00018391,"INCLINATION":43.003,"RA_OF_ASC_NODE":110.2375,"ARG_OF_PERICENTER":271.6423,"MEAN_ANOMALY":88.4218,"EPHEMERIS_TYPE":0,"CLASSIFICATION_TYPE":"U","NORAD_CAT_ID":63408,"ELEMENT_SET_NO":999,"REV_AT_EPOCH":5281,"BSTAR":0.00078888279,"MEAN_MOTION_DOT":0.00021515,"MEAN_MOTION_DDOT":0}]
