CS1                     
1 49261U 21088B   26068.75173904  .00015722  00000+0  51176-3 0  9998
2 49261  97.3882 132.1684 0014129  78.0335 282.2490 15.31848439245182
STARLINK-33692          
1 63408U 25065K   26068.80736901  .00021515  00000+0  78888-3 0  9990
2 63408  43.0030 110.2375 0001839 271.6423  88.4218 15.27588379 52810
